{
  "type": "FeatureCollection",
  "id": "public.slick_plus",
  "title": "public.slick_plus",
  "description": "public.slick_plus",
  "numberMatched": 2,
  "numberReturned": 2,
  "links": [
    {
      "title": "Collection",
      "href": "http://api.cerulean.skytruth.org/collections/public.slick_plus",
      "rel": "collection",
      "type": "application/json"
    },
    {
      "title": "Items",
      "href": "http://api.cerulean.skytruth.org/collections/public.slick_plus/items?limit=100&bbox=-98%2C23%2C-82%2C31&datetime=2023-01-01T00%3A00%3A00Z%2F2023-01-04T00%3A00%3A00Z&filter=max_source_collated_score+GT+0+AND+NOT+source_type_1_ids+IS+NULL&sortby=-max_source_collated_score",
      "rel": "self",
      "type": "application/geo+json"
    }
  ],
  "features": [
    {
      "type": "Feature",
      "geometry": {
        "type": "MultiPolygon",
        "coordinates": [
          [
            [
              [
                -90.380429,
                27.127963
              ],
              [
                -90.379742,
                27.127963
              ],
              [
                -90.379742,
                27.127277
              ],
              [
                -90.380429,
                27.127277
              ],
              [
                -90.380429,
                27.127963
              ]
            ]
          ],
          [
            [
              [
                -90.383176,
                27.12865
              ],
              [
                -90.381802,
                27.12865
              ],
              [
                -90.381802,
                27.127963
              ],
              [
                -90.383176,
                27.127963
              ],
              [
                -90.383176,
                27.12865
              ]
            ]
          ],
          [
            [
              [
                -90.387296,
                27.127277
              ],
              [
                -90.385236,
                27.127277
              ],
              [
                -90.385236,
                27.12659
              ],
              [
                -90.385922,
                27.12659
              ],
              [
                -90.385922,
                27.125217
              ],
              [
                -90.387982,
                27.125217
              ],
              [
                -90.387982,
                27.125903
              ],
              [
                -90.387296,
                27.125903
              ],
              [
                -90.387296,
                27.127277
              ]
            ]
          ],
          [
            [
              [
                -90.403775,
                27.125903
              ],
              [
                -90.403088,
                27.125903
              ],
              [
                -90.403088,
                27.125217
              ],
              [
                -90.403775,
                27.125217
              ],
              [
                -90.403775,
                27.125903
              ]
            ]
          ],
          [
            [
              [
                -90.403088,
                27.125217
              ],
              [
                -90.402402,
                27.125217
              ],
              [
                -90.402402,
                27.12453
              ],
              [
                -90.401028,
                27.12453
              ],
              [
                -90.401028,
                27.125217
              ],
              [
                -90.398282,
                27.125217
              ],
              [
                -90.398282,
                27.12453
              ],
              [
                -90.393475,
                27.12453
              ],
              [
                -90.393475,
                27.123843
              ],
              [
                -90.394849,
                27.123843
              ],
              [
                -90.394849,
                27.123157
              ],
              [
                -90.396222,
                27.123157
              ],
              [
                -90.396222,
                27.123843
              ],
              [
                -90.399655,
                27.123843
              ],
              [
                -90.399655,
                27.123157
              ],
              [
                -90.405835,
                27.123157
              ],
              [
                -90.405835,
                27.123843
              ],
              [
                -90.403088,
                27.123843
              ],
              [
                -90.403088,
                27.125217
              ]
            ]
          ],
          [
            [
              [
                -90.425061,
                27.130023
              ],
              [
                -90.423001,
                27.130023
              ],
              [
                -90.423001,
                27.129337
              ],
              [
                -90.420255,
                27.129337
              ],
              [
                -90.420255,
                27.12865
              ],
              [
                -90.418195,
                27.12865
              ],
              [
                -90.418195,
                27.127963
              ],
              [
                -90.416821,
                27.127963
              ],
              [
                -90.416821,
                27.129337
              ],
              [
                -90.415448,
                27.129337
              ],
              [
                -90.415448,
                27.12865
              ],
              [
                -90.416135,
                27.12865
              ],
              [
                -90.416135,
                27.127963
              ],
              [
                -90.414761,
                27.127963
              ],
              [
                -90.414761,
                27.127277
              ],
              [
                -90.413388,
                27.127277
              ],
              [
                -90.413388,
                27.12659
              ],
              [
                -90.412701,
                27.12659
              ],
              [
                -90.412701,
                27.125903
              ],
              [
                -90.410641,
                27.125903
              ],
              [
                -90.410641,
                27.125217
              ],
              [
                -90.409955,
                27.125217
              ],
              [
                -90.409955,
                27.12453
              ],
              [
                -90.406522,
                27.12453
              ],
              [
                -90.406522,
                27.123843
              ],
              [
                -90.408582,
                27.123843
              ],
              [
                -90.408582,
                27.123157
              ],
              [
                -90.409268,
                27.123157
              ],
              [
                -90.409268,
                27.123843
              ],
              [
                -90.410641,
                27.123843
              ],
              [
                -90.410641,
                27.12453
              ],
              [
                -90.411328,
                27.12453
              ],
              [
                -90.411328,
                27.125217
              ],
              [
                -90.415448,
                27.125217
              ],
              [
                -90.415448,
                27.12453
              ],
              [
                -90.417508,
                27.12453
              ],
              [
                -90.417508,
                27.125217
              ],
              [
                -90.418195,
                27.125217
              ],
              [
                -90.418195,
                27.125903
              ],
              [
                -90.419568,
                27.125903
              ],
              [
                -90.419568,
                27.12659
              ],
              [
                -90.420255,
                27.12659
              ],
              [
                -90.420255,
                27.125903
              ],
              [
                -90.422314,
                27.125903
              ],
              [
                -90.422314,
                27.12659
              ],
              [
                -90.423001,
                27.12659
              ],
              [
                -90.423001,
                27.127277
              ],
              [
                -90.423688,
                27.127277
              ],
              [
                -90.423688,
                27.127963
              ],
              [
                -90.424374,
                27.127963
              ],
              [
                -90.424374,
                27.12865
              ],
              [
                -90.425061,
                27.12865
              ],
              [
                -90.425061,
                27.130023
              ]
            ]
          ],
          [
            [
              [
                -90.423688,
                27.125903
              ],
              [
                -90.423001,
                27.125903
              ],
              [
                -90.423001,
                27.125217
              ],
              [
                -90.423688,
                27.125217
              ],
              [
                -90.423688,
                27.125903
              ]
            ]
          ],
          [
            [
              [
                -90.425748,
                27.132083
              ],
              [
                -90.425061,
                27.132083
              ],
              [
                -90.425061,
                27.13071
              ],
              [
                -90.425748,
                27.13071
              ],
              [
                -90.425748,
                27.132083
              ]
            ]
          ],
          [
            [
              [
                -90.436734,
                27.12865
              ],
              [
                -90.435361,
                27.12865
              ],
              [
                -90.435361,
                27.127963
              ],
              [
                -90.436734,
                27.127963
              ],
              [
                -90.436734,
                27.12865
              ]
            ]
          ],
          [
            [
              [
                -90.435361,
                27.127963
              ],
              [
                -90.430554,
                27.127963
              ],
              [
                -90.430554,
                27.127277
              ],
              [
                -90.429181,
                27.127277
              ],
              [
                -90.429181,
                27.125903
              ],
              [
                -90.429868,
                27.125903
              ],
              [
                -90.429868,
                27.12659
              ],
              [
                -90.431241,
                27.12659
              ],
              [
                -90.431241,
                27.125903
              ],
              [
                -90.431927,
                27.125903
              ],
              [
                -90.431927,
                27.127277
              ],
              [
                -90.435361,
                27.127277
              ],
              [
                -90.435361,
                27.127963
              ]
            ]
          ],
          [
            [
              [
                -90.435361,
                27.139636
              ],
              [
                -90.434674,
                27.139636
              ],
              [
                -90.434674,
                27.138263
              ],
              [
                -90.435361,
                27.138263
              ],
              [
                -90.435361,
                27.139636
              ]
            ]
          ],
          [
            [
              [
                -90.444287,
                27.111484
              ],
              [
                -90.438107,
                27.111484
              ],
              [
                -90.438107,
                27.110797
              ],
              [
                -90.440854,
                27.110797
              ],
              [
                -90.440854,
                27.11011
              ],
              [
                -90.442227,
                27.11011
              ],
              [
                -90.442227,
                27.110797
              ],
              [
                -90.444287,
                27.110797
              ],
              [
                -90.444287,
                27.111484
              ]
            ]
          ],
          [
            [
              [
                -90.44772,
                27.110797
              ],
              [
                -90.444974,
                27.110797
              ],
              [
                -90.444974,
                27.11011
              ],
              [
                -90.447034,
                27.11011
              ],
              [
                -90.447034,
                27.109424
              ],
              [
                -90.44978,
                27.109424
              ],
              [
                -90.44978,
                27.11011
              ],
              [
                -90.44772,
                27.11011
              ],
              [
                -90.44772,
                27.110797
              ]
            ]
          ],
          [
            [
              [
                -90.454587,
                27.132083
              ],
              [
                -90.4539,
                27.132083
              ],
              [
                -90.4539,
                27.131396
              ],
              [
                -90.451154,
                27.131396
              ],
              [
                -90.451154,
                27.132083
              ],
              [
                -90.44978,
                27.132083
              ],
              [
                -90.44978,
                27.131396
              ],
              [
                -90.449094,
                27.131396
              ],
              [
                -90.449094,
                27.13071
              ],
              [
                -90.452527,
                27.13071
              ],
              [
                -90.452527,
                27.130023
              ],
              [
                -90.453214,
                27.130023
              ],
              [
                -90.453214,
                27.13071
              ],
              [
                -90.454587,
                27.13071
              ],
              [
                -90.454587,
                27.132083
              ]
            ]
          ],
          [
            [
              [
                -90.45184,
                27.11011
              ],
              [
                -90.450467,
                27.11011
              ],
              [
                -90.450467,
                27.109424
              ],
              [
                -90.45184,
                27.109424
              ],
              [
                -90.45184,
                27.11011
              ]
            ]
          ],
          [
            [
              [
                -90.454587,
                27.109424
              ],
              [
                -90.452527,
                27.109424
              ],
              [
                -90.452527,
                27.108737
              ],
              [
                -90.454587,
                27.108737
              ],
              [
                -90.454587,
                27.109424
              ]
            ]
          ],
          [
            [
              [
                -90.457333,
                27.109424
              ],
              [
                -90.45596,
                27.109424
              ],
              [
                -90.45596,
                27.108737
              ],
              [
                -90.457333,
                27.108737
              ],
              [
                -90.457333,
                27.109424
              ]
            ]
          ],
          [
            [
              [
                -90.45596,
                27.108737
              ],
              [
                -90.455273,
                27.108737
              ],
              [
                -90.455273,
                27.108051
              ],
              [
                -90.45596,
                27.108051
              ],
              [
                -90.45596,
                27.108737
              ]
            ]
          ],
          [
            [
              [
                -90.466946,
                27.108051
              ],
              [
                -90.465573,
                27.108051
              ],
              [
                -90.465573,
                27.107364
              ],
              [
                -90.463513,
                27.107364
              ],
              [
                -90.463513,
                27.106677
              ],
              [
                -90.466946,
                27.106677
              ],
              [
                -90.466946,
                27.108051
              ]
            ]
          ],
          [
            [
              [
                -90.463513,
                27.107364
              ],
              [
                -90.463513,
                27.108051
              ],
              [
                -90.462827,
                27.108051
              ],
              [
                -90.462827,
                27.108737
              ],
              [
                -90.45802,
                27.108737
              ],
              [
                -90.45802,
                27.108051
              ],
              [
                -90.46008,
                27.108051
              ],
              [
                -90.46008,
                27.107364
              ],
              [
                -90.463513,
                27.107364
              ]
            ]
          ],
          [
            [
              [
                -90.463513,
                27.129337
              ],
              [
                -90.458707,
                27.129337
              ],
              [
                -90.458707,
                27.12865
              ],
              [
                -90.463513,
                27.12865
              ],
              [
                -90.463513,
                27.129337
              ]
            ]
          ],
          [
            [
              [
                -90.47244,
                27.130023
              ],
              [
                -90.471066,
                27.130023
              ],
              [
                -90.471066,
                27.129337
              ],
              [
                -90.46626,
                27.129337
              ],
              [
                -90.46626,
                27.12865
              ],
              [
                -90.4642,
                27.12865
              ],
              [
                -90.4642,
                27.127963
              ],
              [
                -90.464886,
                27.127963
              ],
              [
                -90.464886,
                27.127277
              ],
              [
                -90.465573,
                27.127277
              ],
              [
                -90.465573,
                27.127963
              ],
              [
                -90.469693,
                27.127963
              ],
              [
                -90.469693,
                27.12865
              ],
              [
                -90.473126,
                27.12865
              ],
              [
                -90.473126,
                27.129337
              ],
              [
                -90.47244,
                27.129337
              ],
              [
                -90.47244,
                27.130023
              ]
            ]
          ],
          [
            [
              [
                -90.47038,
                27.108051
              ],
              [
                -90.469693,
                27.108051
              ],
              [
                -90.469693,
                27.107364
              ],
              [
                -90.47038,
                27.107364
              ],
              [
                -90.47038,
                27.108051
              ]
            ]
          ],
          [
            [
              [
                -90.469693,
                27.107364
              ],
              [
                -90.467633,
                27.107364
              ],
              [
                -90.467633,
                27.106677
              ],
              [
                -90.469693,
                27.106677
              ],
              [
                -90.469693,
                27.107364
              ]
            ]
          ],
          [
            [
              [
                -90.475873,
                27.13071
              ],
              [
                -90.4745,
                27.13071
              ],
              [
                -90.4745,
                27.130023
              ],
              [
                -90.475873,
                27.130023
              ],
              [
                -90.475873,
                27.13071
              ]
            ]
          ],
          [
            [
              [
                -90.477933,
                27.13071
              ],
              [
                -90.477246,
                27.13071
              ],
              [
                -90.477246,
                27.130023
              ],
              [
                -90.477933,
                27.130023
              ],
              [
                -90.477933,
                27.13071
              ]
            ]
          ]
        ]
      },
      "id": 3775938,
      "properties": {
        "id": 3775938,
        "slick_timestamp": "2023-01-03T00:01:42",
        "machine_confidence": 0.6386871933937073,
        "slick_confidence": null,
        "length": 9536.60181781,
        "area": 1243162.7260067165,
        "perimeter": 28192.681428815642,
        "polsby_popper": 0.0196546392168957,
        "fill_factor": 0.04258979424166002,
        "centerlines": {
          "type": "FeatureCollection",
          "features": [
            {
              "id": "0",
              "type": "Feature",
              "properties": {
                "area": 12358659.829858562,
                "length": 10424.255632077788
              },
              "geometry": {
                "type": "LineString",
                "coordinates": [
                  [
                    -90.37993527118348,
                    27.12744036159028
                  ],
                  [
                    -90.38022894046433,
                    27.127635203563326
                  ],
                  [
                    -90.38105755748207,
                    27.127686470937224
                  ],
                  [
                    -90.38288197169577,
                    27.127597336126332
                  ],
                  [
                    -90.3862423825008,
                    27.126361158186217
                  ],
                  [
                    -90.39496642656377,
                    27.1242370562406
                  ],
                  [
                    -90.39581641465617,
                    27.124164860464894
                  ],
                  [
                    -90.40037238785193,
                    27.124259389736206
                  ],
                  [
                    -90.40890502508887,
                    27.124827888390662
                  ],
                  [
                    -90.41642092264448,
                    27.126951021712248
                  ],
                  [
                    -90.4275852196722,
                    27.12785019278967
                  ],
                  [
                    -90.43558809892146,
                    27.128054811812575
                  ],
                  [
                    -90.44710825378641,
                    27.12100901836461
                  ],
                  [
                    -90.45142807756281,
                    27.12060278226303
                  ],
                  [
                    -90.4568072542785,
                    27.119229500879925
                  ],
                  [
                    -90.47155327427764,
                    27.127823852976025
                  ],
                  [
                    -90.47470374776616,
                    27.129419994492032
                  ],
                  [
                    -90.47743538292522,
                    27.130268338341946
                  ],
                  [
                    -90.47766970131926,
                    27.13048284852034
                  ]
                ]
              }
            }
          ]
        },
        "aspect_ratio_factor": 0.3855571062279952,
        "cls": 4,
        "orchestrator_run": 224702,
        "linearity": 3722.153192578396,
        "s1_scene_id": "S1A_IW_GRDH_1SDV_20230103T000142_20230103T000207_046612_059620_257F",
        "hitl_cls": null,
        "hitl_cls_name": null,
        "aoi_type_1_ids": [
          282
        ],
        "aoi_type_2_ids": [
          357
        ],
        "aoi_type_3_ids": null,
        "source_type_1_ids": [
          "368196410",
          "538005361",
          "538005314",
          "368166560",
          "367655260",
          "367507790"
        ],
        "source_type_2_ids": [
          "1042009"
        ],
        "source_type_3_ids": null,
        "max_source_collated_score": 0.7341757485187846,
        "slick_url": "https://cerulean.skytruth.org/slicks/3775938?ref=api&slick_id=3775938"
      },
      "links": [
        {
          "title": "Collection",
          "href": "http://api.cerulean.skytruth.org/collections/public.slick_plus",
          "rel": "collection",
          "type": "application/json"
        },
        {
          "title": "Item",
          "href": "http://api.cerulean.skytruth.org/collections/public.slick_plus/items/3775938",
          "rel": "item",
          "type": "application/geo+json"
        }
      ]
    },
    {
      "type": "Feature",
      "geometry": {
        "type": "MultiPolygon",
        "coordinates": [
          [
            [
              [
                -88.908948,
                29.457751
              ],
              [
                -88.906888,
                29.457751
              ],
              [
                -88.906888,
                29.456378
              ],
              [
                -88.904141,
                29.456378
              ],
              [
                -88.904141,
                29.457065
              ],
              [
                -88.903455,
                29.457065
              ],
              [
                -88.903455,
                29.456378
              ],
              [
                -88.900708,
                29.456378
              ],
              [
                -88.900708,
                29.455692
              ],
              [
                -88.897275,
                29.455692
              ],
              [
                -88.897275,
                29.455005
              ],
              [
                -88.901395,
                29.455005
              ],
              [
                -88.901395,
                29.455692
              ],
              [
                -88.907574,
                29.455692
              ],
              [
                -88.907574,
                29.456378
              ],
              [
                -88.908948,
                29.456378
              ],
              [
                -88.908948,
                29.457751
              ]
            ]
          ],
          [
            [
              [
                -88.913068,
                29.402133
              ],
              [
                -88.912381,
                29.402133
              ],
              [
                -88.912381,
                29.401447
              ],
              [
                -88.911694,
                29.401447
              ],
              [
                -88.911694,
                29.40076
              ],
              [
                -88.911008,
                29.40076
              ],
              [
                -88.911008,
                29.400073
              ],
              [
                -88.910321,
                29.400073
              ],
              [
                -88.910321,
                29.399387
              ],
              [
                -88.909634,
                29.399387
              ],
              [
                -88.909634,
                29.3987
              ],
              [
                -88.908948,
                29.3987
              ],
              [
                -88.908948,
                29.398013
              ],
              [
                -88.909634,
                29.398013
              ],
              [
                -88.909634,
                29.39664
              ],
              [
                -88.908948,
                29.39664
              ],
              [
                -88.908948,
                29.395953
              ],
              [
                -88.908261,
                29.395953
              ],
              [
                -88.908261,
                29.395267
              ],
              [
                -88.907574,
                29.395267
              ],
              [
                -88.907574,
                29.39458
              ],
              [
                -88.906201,
                29.39458
              ],
              [
                -88.906201,
                29.393893
              ],
              [
                -88.904828,
                29.393893
              ],
              [
                -88.904828,
                29.39252
              ],
              [
                -88.904141,
                29.39252
              ],
              [
                -88.904141,
                29.389774
              ],
              [
                -88.903455,
                29.389774
              ],
              [
                -88.903455,
                29.387714
              ],
              [
                -88.901395,
                29.387714
              ],
              [
                -88.901395,
                29.387027
              ],
              [
                -88.900021,
                29.387027
              ],
              [
                -88.900021,
                29.38634
              ],
              [
                -88.899335,
                29.38634
              ],
              [
                -88.899335,
                29.385654
              ],
              [
                -88.900021,
                29.385654
              ],
              [
                -88.900021,
                29.38428
              ],
              [
                -88.903455,
                29.38428
              ],
              [
                -88.903455,
                29.384967
              ],
              [
                -88.904141,
                29.384967
              ],
              [
                -88.904141,
                29.385654
              ],
              [
                -88.905515,
                29.385654
              ],
              [
                -88.905515,
                29.387027
              ],
              [
                -88.904828,
                29.387027
              ],
              [
                -88.904828,
                29.3884
              ],
              [
                -88.905515,
                29.3884
              ],
              [
                -88.905515,
                29.389087
              ],
              [
                -88.906888,
                29.389087
              ],
              [
                -88.906888,
                29.389774
              ],
              [
                -88.906201,
                29.389774
              ],
              [
                -88.906201,
                29.39046
              ],
              [
                -88.905515,
                29.39046
              ],
              [
                -88.905515,
                29.391147
              ],
              [
                -88.906201,
                29.391147
              ],
              [
                -88.906201,
                29.391833
              ],
              [
                -88.906888,
                29.391833
              ],
              [
                -88.906888,
                29.391147
              ],
              [
                -88.907574,
                29.391147
              ],
              [
                -88.907574,
                29.39046
              ],
              [
                -88.908948,
                29.39046
              ],
              [
                -88.908948,
                29.389774
              ],
              [
                -88.907574,
                29.389774
              ],
              [
                -88.907574,
                29.387714
              ],
              [
                -88.908948,
                29.387714
              ],
              [
                -88.908948,
                29.385654
              ],
              [
                -88.908261,
                29.385654
              ],
              [
                -88.908261,
                29.38428
              ],
              [
                -88.909634,
                29.38428
              ],
              [
                -88.909634,
                29.385654
              ],
              [
                -88.911008,
                29.385654
              ],
              [
                -88.911008,
                29.38634
              ],
              [
                -88.911694,
                29.38634
              ],
              [
                -88.911694,
                29.387027
              ],
              [
                -88.912381,
                29.387027
              ],
              [
                -88.912381,
                29.3884
              ],
              [
                -88.911694,
                29.3884
              ],
              [
                -88.911694,
                29.389774
              ],
              [
                -88.911008,
                29.389774
              ],
              [
                -88.911008,
                29.393893
              ],
              [
                -88.910321,
                29.393893
              ],
              [
                -88.910321,
                29.395953
              ],
              [
                -88.911008,
                29.395953
              ],
              [
                -88.911008,
                29.3987
              ],
              [
                -88.911694,
                29.3987
              ],
              [
                -88.911694,
                29.399387
              ],
              [
                -88.912381,
                29.399387
              ],
              [
                -88.912381,
                29.40076
              ],
              [
                -88.913068,
                29.40076
              ],
              [
                -88.913068,
                29.402133
              ]
            ],
            [
              [
                -88.911008,
                29.387714
              ],
              [
                -88.911008,
                29.387027
              ],
              [
                -88.910321,
                29.387027
              ],
              [
                -88.910321,
                29.387714
              ],
              [
                -88.911008,
                29.387714
              ]
            ]
          ],
          [
            [
              [
                -88.935727,
                29.428912
              ],
              [
                -88.93504,
                29.428912
              ],
              [
                -88.93504,
                29.427539
              ],
              [
                -88.935727,
                29.427539
              ],
              [
                -88.935727,
                29.428912
              ]
            ]
          ],
          [
            [
              [
                -88.935727,
                29.428912
              ],
              [
                -88.936414,
                29.428912
              ],
              [
                -88.936414,
                29.429599
              ],
              [
                -88.9371,
                29.429599
              ],
              [
                -88.9371,
                29.430286
              ],
              [
                -88.938474,
                29.430286
              ],
              [
                -88.938474,
                29.430972
              ],
              [
                -88.93916,
                29.430972
              ],
              [
                -88.93916,
                29.433032
              ],
              [
                -88.939847,
                29.433032
              ],
              [
                -88.939847,
                29.434406
              ],
              [
                -88.940533,
                29.434406
              ],
              [
                -88.940533,
                29.436465
              ],
              [
                -88.94122,
                29.436465
              ],
              [
                -88.94122,
                29.437152
              ],
              [
                -88.942593,
                29.437152
              ],
              [
                -88.942593,
                29.437839
              ],
              [
                -88.94328,
                29.437839
              ],
              [
                -88.94328,
                29.438525
              ],
              [
                -88.943967,
                29.438525
              ],
              [
                -88.943967,
                29.439899
              ],
              [
                -88.944653,
                29.439899
              ],
              [
                -88.944653,
                29.441272
              ],
              [
                -88.94534,
                29.441272
              ],
              [
                -88.94534,
                29.444019
              ],
              [
                -88.946027,
                29.444019
              ],
              [
                -88.946027,
                29.444705
              ],
              [
                -88.946713,
                29.444705
              ],
              [
                -88.946713,
                29.446078
              ],
              [
                -88.9474,
                29.446078
              ],
              [
                -88.9474,
                29.448138
              ],
              [
                -88.948773,
                29.448138
              ],
              [
                -88.948773,
                29.448825
              ],
              [
                -88.94946,
                29.448825
              ],
              [
                -88.94946,
                29.449512
              ],
              [
                -88.950146,
                29.449512
              ],
              [
                -88.950146,
                29.450198
              ],
              [
                -88.950833,
                29.450198
              ],
              [
                -88.950833,
                29.451572
              ],
              [
                -88.95152,
                29.451572
              ],
              [
                -88.95152,
                29.454318
              ],
              [
                -88.950833,
                29.454318
              ],
              [
                -88.950833,
                29.453632
              ],
              [
                -88.950146,
                29.453632
              ],
              [
                -88.950146,
                29.452258
              ],
              [
                -88.948087,
                29.452258
              ],
              [
                -88.948087,
                29.451572
              ],
              [
                -88.9474,
                29.451572
              ],
              [
                -88.9474,
                29.450198
              ],
              [
                -88.944653,
                29.450198
              ],
              [
                -88.944653,
                29.451572
              ],
              [
                -88.94328,
                29.451572
              ],
              [
                -88.94328,
                29.452258
              ],
              [
                -88.941907,
                29.452258
              ],
              [
                -88.941907,
                29.452945
              ],
              [
                -88.94122,
                29.452945
              ],
              [
                -88.94122,
                29.453632
              ],
              [
                -88.940533,
                29.453632
              ],
              [
                -88.940533,
                29.454318
              ],
              [
                -88.93916,
                29.454318
              ],
              [
                -88.93916,
                29.455005
              ],
              [
                -88.934354,
                29.455005
              ],
              [
                -88.934354,
                29.455692
              ],
              [
                -88.933667,
                29.455692
              ],
              [
                -88.933667,
                29.457065
              ],
              [
                -88.935727,
                29.457065
              ],
              [
                -88.935727,
                29.457751
              ],
              [
                -88.930234,
                29.457751
              ],
              [
                -88.930234,
                29.457065
              ],
              [
                -88.929547,
                29.457065
              ],
              [
                -88.929547,
                29.457751
              ],
              [
                -88.928174,
                29.457751
              ],
              [
                -88.928174,
                29.458438
              ],
              [
                -88.927487,
                29.458438
              ],
              [
                -88.927487,
                29.457751
              ],
              [
                -88.923367,
                29.457751
              ],
              [
                -88.923367,
                29.458438
              ],
              [
                -88.922681,
                29.458438
              ],
              [
                -88.922681,
                29.457751
              ],
              [
                -88.916501,
                29.457751
              ],
              [
                -88.916501,
                29.456378
              ],
              [
                -88.915814,
                29.456378
              ],
              [
                -88.915814,
                29.457065
              ],
              [
                -88.913754,
                29.457065
              ],
              [
                -88.913754,
                29.457751
              ],
              [
                -88.909634,
                29.457751
              ],
              [
                -88.909634,
                29.457065
              ],
              [
                -88.910321,
                29.457065
              ],
              [
                -88.910321,
                29.456378
              ],
              [
                -88.913754,
                29.456378
              ],
              [
                -88.913754,
                29.455005
              ],
              [
                -88.915814,
                29.455005
              ],
              [
                -88.915814,
                29.455692
              ],
              [
                -88.921307,
                29.455692
              ],
              [
                -88.921307,
                29.456378
              ],
              [
                -88.922681,
                29.456378
              ],
              [
                -88.922681,
                29.455692
              ],
              [
                -88.92886,
                29.455692
              ],
              [
                -88.92886,
                29.455005
              ],
              [
                -88.930234,
                29.455005
              ],
              [
                -88.930234,
                29.454318
              ],
              [
                -88.934354,
                29.454318
              ],
              [
                -88.934354,
                29.453632
              ],
              [
                -88.938474,
                29.453632
              ],
              [
                -88.938474,
                29.452945
              ],
              [
                -88.939847,
                29.452945
              ],
              [
                -88.939847,
                29.450198
              ],
              [
                -88.942593,
                29.450198
              ],
              [
                -88.942593,
                29.449512
              ],
              [
                -88.944653,
                29.449512
              ],
              [
                -88.944653,
                29.448825
              ],
              [
                -88.94534,
                29.448825
              ],
              [
                -88.94534,
                29.446765
              ],
              [
                -88.944653,
                29.446765
              ],
              [
                -88.944653,
                29.445392
              ],
              [
                -88.943967,
                29.445392
              ],
              [
                -88.943967,
                29.442645
              ],
              [
                -88.942593,
                29.442645
              ],
              [
                -88.942593,
                29.441959
              ],
              [
                -88.941907,
                29.441959
              ],
              [
                -88.941907,
                29.441272
              ],
              [
                -88.94122,
                29.441272
              ],
              [
                -88.94122,
                29.438525
              ],
              [
                -88.940533,
                29.438525
              ],
              [
                -88.940533,
                29.437839
              ],
              [
                -88.939847,
                29.437839
              ],
              [
                -88.939847,
                29.436465
              ],
              [
                -88.93916,
                29.436465
              ],
              [
                -88.93916,
                29.435092
              ],
              [
                -88.938474,
                29.435092
              ],
              [
                -88.938474,
                29.434406
              ],
              [
                -88.937787,
                29.434406
              ],
              [
                -88.937787,
                29.433719
              ],
              [
                -88.938474,
                29.433719
              ],
              [
                -88.938474,
                29.433032
              ],
              [
                -88.9371,
                29.433032
              ],
              [
                -88.9371,
                29.431659
              ],
              [
                -88.936414,
                29.431659
              ],
              [
                -88.936414,
                29.430972
              ],
              [
                -88.935727,
                29.430972
              ],
              [
                -88.935727,
                29.428912
              ]
            ]
          ],
          [
            [
              [
                -88.923367,
                29.41106
              ],
              [
                -88.922681,
                29.41106
              ],
              [
                -88.922681,
                29.410373
              ],
              [
                -88.921994,
                29.410373
              ],
              [
                -88.921994,
                29.409686
              ],
              [
                -88.921307,
                29.409686
              ],
              [
                -88.921307,
                29.409
              ],
              [
                -88.921994,
                29.409
              ],
              [
                -88.921994,
                29.408313
              ],
              [
                -88.921307,
                29.408313
              ],
              [
                -88.921307,
                29.40694
              ],
              [
                -88.919247,
                29.40694
              ],
              [
                -88.919247,
                29.40488
              ],
              [
                -88.921307,
                29.40488
              ],
              [
                -88.921307,
                29.405566
              ],
              [
                -88.921994,
                29.405566
              ],
              [
                -88.921994,
                29.407626
              ],
              [
                -88.922681,
                29.407626
              ],
              [
                -88.922681,
                29.408313
              ],
              [
                -88.923367,
                29.408313
              ],
              [
                -88.923367,
                29.41106
              ]
            ]
          ],
          [
            [
              [
                -88.920621,
                29.408313
              ],
              [
                -88.919934,
                29.408313
              ],
              [
                -88.919934,
                29.407626
              ],
              [
                -88.920621,
                29.407626
              ],
              [
                -88.920621,
                29.408313
              ]
            ]
          ],
          [
            [
              [
                -88.932294,
                29.370547
              ],
              [
                -88.93092,
                29.370547
              ],
              [
                -88.93092,
                29.367801
              ],
              [
                -88.930234,
                29.367801
              ],
              [
                -88.930234,
                29.367114
              ],
              [
                -88.931607,
                29.367114
              ],
              [
                -88.931607,
                29.367801
              ],
              [
                -88.932294,
                29.367801
              ],
              [
                -88.932294,
                29.370547
              ]
            ]
          ],
          [
            [
              [
                -88.930234,
                29.367114
              ],
              [
                -88.929547,
                29.367114
              ],
              [
                -88.929547,
                29.366428
              ],
              [
                -88.92886,
                29.366428
              ],
              [
                -88.92886,
                29.365741
              ],
              [
                -88.926801,
                29.365741
              ],
              [
                -88.926801,
                29.365054
              ],
              [
                -88.925427,
                29.365054
              ],
              [
                -88.925427,
                29.364368
              ],
              [
                -88.924741,
                29.364368
              ],
              [
                -88.924741,
                29.361621
              ],
              [
                -88.926801,
                29.361621
              ],
              [
                -88.926801,
                29.362308
              ],
              [
                -88.927487,
                29.362308
              ],
              [
                -88.927487,
                29.362994
              ],
              [
                -88.928174,
                29.362994
              ],
              [
                -88.928174,
                29.364368
              ],
              [
                -88.92886,
                29.364368
              ],
              [
                -88.92886,
                29.365054
              ],
              [
                -88.929547,
                29.365054
              ],
              [
                -88.929547,
                29.365741
              ],
              [
                -88.930234,
                29.365741
              ],
              [
                -88.930234,
                29.367114
              ]
            ]
          ],
          [
            [
              [
                -88.938474,
                29.395953
              ],
              [
                -88.93504,
                29.395953
              ],
              [
                -88.93504,
                29.395267
              ],
              [
                -88.934354,
                29.395267
              ],
              [
                -88.934354,
                29.39458
              ],
              [
                -88.933667,
                29.39458
              ],
              [
                -88.933667,
                29.391147
              ],
              [
                -88.93298,
                29.391147
              ],
              [
                -88.93298,
                29.389774
              ],
              [
                -88.933667,
                29.389774
              ],
              [
                -88.933667,
                29.382907
              ],
              [
                -88.93298,
                29.382907
              ],
              [
                -88.93298,
                29.378787
              ],
              [
                -88.932294,
                29.378787
              ],
              [
                -88.932294,
                29.378101
              ],
              [
                -88.93092,
                29.378101
              ],
              [
                -88.93092,
                29.376041
              ],
              [
                -88.930234,
                29.376041
              ],
              [
                -88.930234,
                29.373294
              ],
              [
                -88.93092,
                29.373294
              ],
              [
                -88.93092,
                29.372607
              ],
              [
                -88.931607,
                29.372607
              ],
              [
                -88.931607,
                29.373294
              ],
              [
                -88.932294,
                29.373294
              ],
              [
                -88.932294,
                29.375354
              ],
              [
                -88.93298,
                29.375354
              ],
              [
                -88.93298,
                29.376727
              ],
              [
                -88.933667,
                29.376727
              ],
              [
                -88.933667,
                29.378787
              ],
              [
                -88.934354,
                29.378787
              ],
              [
                -88.934354,
                29.381534
              ],
              [
                -88.933667,
                29.381534
              ],
              [
                -88.933667,
                29.38222
              ],
              [
                -88.934354,
                29.38222
              ],
              [
                -88.934354,
                29.383594
              ],
              [
                -88.93504,
                29.383594
              ],
              [
                -88.93504,
                29.38428
              ],
              [
                -88.934354,
                29.38428
              ],
              [
                -88.934354,
                29.38634
              ],
              [
                -88.93504,
                29.38634
              ],
              [
                -88.93504,
                29.387027
              ],
              [
                -88.935727,
                29.387027
              ],
              [
                -88.935727,
                29.387714
              ],
              [
                -88.936414,
                29.387714
              ],
              [
                -88.936414,
                29.389774
              ],
              [
                -88.9371,
                29.389774
              ],
              [
                -88.9371,
                29.391147
              ],
              [
                -88.938474,
                29.391147
              ],
              [
                -88.938474,
                29.393207
              ],
              [
                -88.937787,
                29.393207
              ],
              [
                -88.937787,
                29.393893
              ],
              [
                -88.938474,
                29.393893
              ],
              [
                -88.938474,
                29.395953
              ]
            ],
            [
              [
                -88.936414,
                29.395267
              ],
              [
                -88.936414,
                29.39458
              ],
              [
                -88.9371,
                29.39458
              ],
              [
                -88.9371,
                29.391833
              ],
              [
                -88.936414,
                29.391833
              ],
              [
                -88.936414,
                29.39046
              ],
              [
                -88.93504,
                29.39046
              ],
              [
                -88.93504,
                29.391833
              ],
              [
                -88.935727,
                29.391833
              ],
              [
                -88.935727,
                29.393207
              ],
              [
                -88.934354,
                29.393207
              ],
              [
                -88.934354,
                29.393893
              ],
              [
                -88.93504,
                29.393893
              ],
              [
                -88.93504,
                29.39458
              ],
              [
                -88.935727,
                29.39458
              ],
              [
                -88.935727,
                29.395267
              ],
              [
                -88.936414,
                29.395267
              ]
            ]
          ],
          [
            [
              [
                -88.93916,
                29.397327
              ],
              [
                -88.938474,
                29.397327
              ],
              [
                -88.938474,
                29.39664
              ],
              [
                -88.93916,
                29.39664
              ],
              [
                -88.93916,
                29.397327
              ]
            ]
          ],
          [
            [
              [
                -88.942593,
                29.405566
              ],
              [
                -88.94122,
                29.405566
              ],
              [
                -88.94122,
                29.404193
              ],
              [
                -88.941907,
                29.404193
              ],
              [
                -88.941907,
                29.40488
              ],
              [
                -88.942593,
                29.40488
              ],
              [
                -88.942593,
                29.405566
              ]
            ]
          ],
          [
            [
              [
                -88.965253,
                29.447452
              ],
              [
                -88.963879,
                29.447452
              ],
              [
                -88.963879,
                29.446765
              ],
              [
                -88.963193,
                29.446765
              ],
              [
                -88.963193,
                29.444019
              ],
              [
                -88.962506,
                29.444019
              ],
              [
                -88.962506,
                29.442645
              ],
              [
                -88.961819,
                29.442645
              ],
              [
                -88.961819,
                29.441959
              ],
              [
                -88.961133,
                29.441959
              ],
              [
                -88.961133,
                29.441272
              ],
              [
                -88.960446,
                29.441272
              ],
              [
                -88.960446,
                29.440585
              ],
              [
                -88.961133,
                29.440585
              ],
              [
                -88.961133,
                29.439899
              ],
              [
                -88.961819,
                29.439899
              ],
              [
                -88.961819,
                29.439212
              ],
              [
                -88.961133,
                29.439212
              ],
              [
                -88.961133,
                29.438525
              ],
              [
                -88.960446,
                29.438525
              ],
              [
                -88.960446,
                29.437839
              ],
              [
                -88.95976,
                29.437839
              ],
              [
                -88.95976,
                29.437152
              ],
              [
                -88.959073,
                29.437152
              ],
              [
                -88.959073,
                29.436465
              ],
              [
                -88.958386,
                29.436465
              ],
              [
                -88.958386,
                29.435092
              ],
              [
                -88.9577,
                29.435092
              ],
              [
                -88.9577,
                29.433032
              ],
              [
                -88.957013,
                29.433032
              ],
              [
                -88.957013,
                29.431659
              ],
              [
                -88.956326,
                29.431659
              ],
              [
                -88.956326,
                29.428912
              ],
              [
                -88.957013,
                29.428912
              ],
              [
                -88.957013,
                29.430286
              ],
              [
                -88.9577,
                29.430286
              ],
              [
                -88.9577,
                29.431659
              ],
              [
                -88.958386,
                29.431659
              ],
              [
                -88.958386,
                29.433032
              ],
              [
                -88.959073,
                29.433032
              ],
              [
                -88.959073,
                29.434406
              ],
              [
                -88.95976,
                29.434406
              ],
              [
                -88.95976,
                29.435092
              ],
              [
                -88.961819,
                29.435092
              ],
              [
                -88.961819,
                29.435779
              ],
              [
                -88.962506,
                29.435779
              ],
              [
                -88.962506,
                29.437839
              ],
              [
                -88.963193,
                29.437839
              ],
              [
                -88.963193,
                29.441959
              ],
              [
                -88.963879,
                29.441959
              ],
              [
                -88.963879,
                29.442645
              ],
              [
                -88.964566,
                29.442645
              ],
              [
                -88.964566,
                29.444705
              ],
              [
                -88.963879,
                29.444705
              ],
              [
                -88.963879,
                29.446078
              ],
              [
                -88.964566,
                29.446078
              ],
              [
                -88.964566,
                29.446765
              ],
              [
                -88.965253,
                29.446765
              ],
              [
                -88.965253,
                29.447452
              ]
            ]
          ],
          [
            [
              [
                -88.956326,
                29.428912
              ],
              [
                -88.95564,
                29.428912
              ],
              [
                -88.95564,
                29.428226
              ],
              [
                -88.956326,
                29.428226
              ],
              [
                -88.956326,
                29.428912
              ]
            ]
          ],
          [
            [
              [
                -88.95564,
                29.428226
              ],
              [
                -88.954953,
                29.428226
              ],
              [
                -88.954953,
                29.427539
              ],
              [
                -88.95564,
                29.427539
              ],
              [
                -88.95564,
                29.428226
              ]
            ]
          ]
        ]
      },
      "id": 3750297,
      "properties": {
        "id": 3750297,
        "slick_timestamp": "2023-01-03T00:02:07",
        "machine_confidence": 0.7826249599456787,
        "slick_confidence": null,
        "length": 10388.58441496,
        "area": 3631087.697600484,
        "perimeter": 55021.8121965309,
        "polsby_popper": 0.015072206016257715,
        "fill_factor": 0.05216844086760303,
        "centerlines": {
          "type": "FeatureCollection",
          "features": [
            {
              "id": "0",
              "type": "Feature",
              "properties": {
                "area": 22716264.420925945,
                "length": 15235.046223522488
              },
              "geometry": {
                "type": "LineString",
                "coordinates": [
                  [
                    -88.92496741105353,
                    29.36186080948867
                  ],
                  [
                    -88.92614975046516,
                    29.36285684544567
                  ],
                  [
                    -88.9284707966953,
                    29.369106311745078
                  ],
                  [
                    -88.92723604219078,
                    29.3798609273718
                  ],
                  [
                    -88.92525641187619,
                    29.38588447182623
                  ],
                  [
                    -88.92279233714649,
                    29.392626276206325
                  ],
                  [
                    -88.9246025526051,
                    29.3946311346455
                  ],
                  [
                    -88.92958812134647,
                    29.403297309371187
                  ],
                  [
                    -88.93256118558479,
                    29.40644349085303
                  ],
                  [
                    -88.94252722279694,
                    29.42787589693723
                  ],
                  [
                    -88.94813701919885,
                    29.435453016795673
                  ],
                  [
                    -88.94975742042142,
                    29.44045755561788
                  ],
                  [
                    -88.94692980095094,
                    29.444391604025522
                  ],
                  [
                    -88.9341149953025,
                    29.45325347191561
                  ],
                  [
                    -88.92771760744627,
                    29.455453566071416
                  ],
                  [
                    -88.92303217556778,
                    29.456278202005898
                  ],
                  [
                    -88.91413080017817,
                    29.4563590261495
                  ],
                  [
                    -88.91145457512309,
                    29.45661953795128
                  ],
                  [
                    -88.9075904583957,
                    29.456727313901553
                  ],
                  [
                    -88.9043221648869,
                    29.45636794706853
                  ],
                  [
                    -88.90110029365022,
                    29.455708811945613
                  ],
                  [
                    -88.89772741414005,
                    29.45538514020572
                  ],
                  [
                    -88.89762660489109,
                    29.45527144823027
                  ]
                ]
              }
            }
          ]
        },
        "aspect_ratio_factor": 0.4379152045998118,
        "cls": 5,
        "orchestrator_run": 218925,
        "linearity": 1971.9649271532187,
        "s1_scene_id": "S1A_IW_GRDH_1SDV_20230103T000207_20230103T000232_046612_059620_01A8",
        "hitl_cls": null,
        "hitl_cls_name": null,
        "aoi_type_1_ids": [
          282
        ],
        "aoi_type_2_ids": [
          357
        ],
        "aoi_type_3_ids": null,
        "source_type_1_ids": [
          "338263000"
        ],
        "source_type_2_ids": [
          "425994",
          "306733",
          "405219",
          "55502",
          "252068",
          "379766"
        ],
        "source_type_3_ids": [
          "D43.4895363"
        ],
        "max_source_collated_score": 0.2530972925703389,
        "slick_url": "https://cerulean.skytruth.org/slicks/3750297?ref=api&slick_id=3750297"
      },
      "links": [
        {
          "title": "Collection",
          "href": "http://api.cerulean.skytruth.org/collections/public.slick_plus",
          "rel": "collection",
          "type": "application/json"
        },
        {
          "title": "Item",
          "href": "http://api.cerulean.skytruth.org/collections/public.slick_plus/items/3750297",
          "rel": "item",
          "type": "application/geo+json"
        }
      ]
    }
  ]
}