{"type":"FeatureCollection","features":[{"type":"Feature","geometry":{"type":"MultiPolygon","coordinates":[[[[-90.380429,27.127963],[-90.379742,27.127963],[-90.379742,27.127277],[-90.380429,27.127277],[-90.380429,27.127963]]],[[[-90.383176,27.12865],[-90.381802,27.12865],[-90.381802,27.127963],[-90.383176,27.127963],[-90.383176,27.12865]]],[[[-90.387296,27.127277],[-90.385236,27.127277],[-90.385236,27.12659],[-90.385922,27.12659],[-90.385922,27.125217],[-90.387982,27.125217],[-90.387982,27.125903],[-90.387296,27.125903],[-90.387296,27.127277]]],[[[-90.403775,27.125903],[-90.403088,27.125903],[-90.403088,27.125217],[-90.403775,27.125217],[-90.403775,27.125903]]],[[[-90.403088,27.125217],[-90.402402,27.125217],[-90.402402,27.12453],[-90.401028,27.12453],[-90.401028,27.125217],[-90.398282,27.125217],[-90.398282,27.12453],[-90.393475,27.12453],[-90.393475,27.123843],[-90.394849,27.123843],[-90.394849,27.123157],[-90.396222,27.123157],[-90.396222,27.123843],[-90.399655,27.123843],[-90.399655,27.123157],[-90.405835,27.123157],[-90.405835,27.123843],[-90.403088,27.123843],[-90.403088,27.125217]]],[[[-90.425061,27.130023],[-90.423001,27.130023],[-90.423001,27.129337],[-90.420255,27.129337],[-90.420255,27.12865],[-90.418195,27.12865],[-90.418195,27.127963],[-90.416821,27.127963],[-90.416821,27.129337],[-90.415448,27.129337],[-90.415448,27.12865],[-90.416135,27.12865],[-90.416135,27.127963],[-90.414761,27.127963],[-90.414761,27.127277],[-90.413388,27.127277],[-90.413388,27.12659],[-90.412701,27.12659],[-90.412701,27.125903],[-90.410641,27.125903],[-90.410641,27.125217],[-90.409955,27.125217],[-90.409955,27.12453],[-90.406522,27.12453],[-90.406522,27.123843],[-90.408582,27.123843],[-90.408582,27.123157],[-90.409268,27.123157],[-90.409268,27.123843],[-90.410641,27.123843],[-90.410641,27.12453],[-90.411328,27.12453],[-90.411328,27.125217],[-90.415448,27.125217],[-90.415448,27.12453],[-90.417508,27.12453],[-90.417508,27.125217],[-90.418195,27.125217],[-90.418195,27.125903],[-90.419568,27.125903],[-90.419568,27.12659],[-90.420255,27.12659],[-90.420255,27.125903],[-90.422314,27.125903],[-90.422314,27.12659],[-90.423001,27.12659],[-90.423001,27.127277],[-90.423688,27.127277],[-90.423688,27.127963],[-90.424374,27.127963],[-90.424374,27.12865],[-90.425061,27.12865],[-90.425061,27.130023]]],[[[-90.423688,27.125903],[-90.423001,27.125903],[-90.423001,27.125217],[-90.423688,27.125217],[-90.423688,27.125903]]],[[[-90.425748,27.132083],[-90.425061,27.132083],[-90.425061,27.13071],[-90.425748,27.13071],[-90.425748,27.132083]]],[[[-90.436734,27.12865],[-90.435361,27.12865],[-90.435361,27.127963],[-90.436734,27.127963],[-90.436734,27.12865]]],[[[-90.435361,27.127963],[-90.430554,27.127963],[-90.430554,27.127277],[-90.429181,27.127277],[-90.429181,27.125903],[-90.429868,27.125903],[-90.429868,27.12659],[-90.431241,27.12659],[-90.431241,27.125903],[-90.431927,27.125903],[-90.431927,27.127277],[-90.435361,27.127277],[-90.435361,27.127963]]],[[[-90.435361,27.139636],[-90.434674,27.139636],[-90.434674,27.138263],[-90.435361,27.138263],[-90.435361,27.139636]]],[[[-90.444287,27.111484],[-90.438107,27.111484],[-90.438107,27.110797],[-90.440854,27.110797],[-90.440854,27.11011],[-90.442227,27.11011],[-90.442227,27.110797],[-90.444287,27.110797],[-90.444287,27.111484]]],[[[-90.44772,27.110797],[-90.444974,27.110797],[-90.444974,27.11011],[-90.447034,27.11011],[-90.447034,27.109424],[-90.44978,27.109424],[-90.44978,27.11011],[-90.44772,27.11011],[-90.44772,27.110797]]],[[[-90.454587,27.132083],[-90.4539,27.132083],[-90.4539,27.131396],[-90.451154,27.131396],[-90.451154,27.132083],[-90.44978,27.132083],[-90.44978,27.131396],[-90.449094,27.131396],[-90.449094,27.13071],[-90.452527,27.13071],[-90.452527,27.130023],[-90.453214,27.130023],[-90.453214,27.13071],[-90.454587,27.13071],[-90.454587,27.132083]]],[[[-90.45184,27.11011],[-90.450467,27.11011],[-90.450467,27.109424],[-90.45184,27.109424],[-90.45184,27.11011]]],[[[-90.454587,27.109424],[-90.452527,27.109424],[-90.452527,27.108737],[-90.454587,27.108737],[-90.454587,27.109424]]],[[[-90.457333,27.109424],[-90.45596,27.109424],[-90.45596,27.108737],[-90.457333,27.108737],[-90.457333,27.109424]]],[[[-90.45596,27.108737],[-90.455273,27.108737],[-90.455273,27.108051],[-90.45596,27.108051],[-90.45596,27.108737]]],[[[-90.466946,27.108051],[-90.465573,27.108051],[-90.465573,27.107364],[-90.463513,27.107364],[-90.463513,27.106677],[-90.466946,27.106677],[-90.466946,27.108051]]],[[[-90.463513,27.107364],[-90.463513,27.108051],[-90.462827,27.108051],[-90.462827,27.108737],[-90.45802,27.108737],[-90.45802,27.108051],[-90.46008,27.108051],[-90.46008,27.107364],[-90.463513,27.107364]]],[[[-90.463513,27.129337],[-90.458707,27.129337],[-90.458707,27.12865],[-90.463513,27.12865],[-90.463513,27.129337]]],[[[-90.47244,27.130023],[-90.471066,27.130023],[-90.471066,27.129337],[-90.46626,27.129337],[-90.46626,27.12865],[-90.4642,27.12865],[-90.4642,27.127963],[-90.464886,27.127963],[-90.464886,27.127277],[-90.465573,27.127277],[-90.465573,27.127963],[-90.469693,27.127963],[-90.469693,27.12865],[-90.473126,27.12865],[-90.473126,27.129337],[-90.47244,27.129337],[-90.47244,27.130023]]],[[[-90.47038,27.108051],[-90.469693,27.108051],[-90.469693,27.107364],[-90.47038,27.107364],[-90.47038,27.108051]]],[[[-90.469693,27.107364],[-90.467633,27.107364],[-90.467633,27.106677],[-90.469693,27.106677],[-90.469693,27.107364]]],[[[-90.475873,27.13071],[-90.4745,27.13071],[-90.4745,27.130023],[-90.475873,27.130023],[-90.475873,27.13071]]],[[[-90.477933,27.13071],[-90.477246,27.13071],[-90.477246,27.130023],[-90.477933,27.130023],[-90.477933,27.13071]]]]},"id":3775938,"properties":{"id":3775938,"slick_timestamp":"2023-01-03T00:01:42","machine_confidence":0.6386871933937073,"slick_confidence":null,"length":9536.60181781,"area":1243162.7260067165,"perimeter":28192.681428815642,"polsby_popper":0.0196546392168957,"fill_factor":0.04258979424166002,"centerlines":{"type":"FeatureCollection","features":[{"id":"0","type":"Feature","properties":{"area":12358659.829858562,"length":10424.255632077788},"geometry":{"type":"LineString","coordinates":[[-90.37993527118348,27.12744036159028],[-90.38022894046433,27.127635203563326],[-90.38105755748207,27.127686470937224],[-90.38288197169577,27.127597336126332],[-90.3862423825008,27.126361158186217],[-90.39496642656377,27.1242370562406],[-90.39581641465617,27.124164860464894],[-90.40037238785193,27.124259389736206],[-90.40890502508887,27.124827888390662],[-90.41642092264448,27.126951021712248],[-90.4275852196722,27.12785019278967],[-90.43558809892146,27.128054811812575],[-90.44710825378641,27.12100901836461],[-90.45142807756281,27.12060278226303],[-90.4568072542785,27.119229500879925],[-90.47155327427764,27.127823852976025],[-90.47470374776616,27.129419994492032],[-90.47743538292522,27.130268338341946],[-90.47766970131926,27.13048284852034]]}}]},"aspect_ratio_factor":0.3855571062279952,"cls":4,"orchestrator_run":224702,"linearity":3722.153192578396,"s1_scene_id":"S1A_IW_GRDH_1SDV_20230103T000142_20230103T000207_046612_059620_257F","hitl_cls":null,"hitl_cls_name":null,"aoi_type_1_ids":[282],"aoi_type_2_ids":[357],"aoi_type_3_ids":null,"source_type_1_ids":["368196410","538005361","538005314","368166560","367655260","367507790"],"source_type_2_ids":["1042009"],"source_type_3_ids":null,"max_source_collated_score":0.7341757485187846,"slick_url":"https://cerulean.skytruth.org/slicks/3775938?ref=api&slick_id=3775938"},"links":[{"title":"Collection","href":"http://api.cerulean.skytruth.org/collections/public.slick_plus","rel":"collection","type":"application/json"},{"title":"Item","href":"http://api.cerulean.skytruth.org/collections/public.slick_plus/items/3775938","rel":"item","type":"application/geo+json"}]}]}